MEAN_MOTION;ECCENTRICITY;INCLINATION;RA_OF_ASC_NODE;ARG_OF_PERICENTER;MEAN_ANOMALY;BSTAR;MEAN_MOTION_DOT;MEAN_MOTION_DDOT;TYPE
14.34216755;0.0002694;86.3961;52.7426;83.5118;276.6384;2.309E-5;8.4E-7;0;Iridium
14.34216854;0.0002686;86.3962;52.5093;83.1819;276.9682;2.4229E-5;8.8E-7;0;Iridium
14.34216854;0.0002686;86.3962;52.5093;83.1819;276.9682;2.4229E-5;8.8E-7;0;Iridium
14.34216914;0.0002683;86.3963;52.3342;82.9113;277.2388;2.3856E-5;8.7E-7;0;Iridium
14.34216978;0.000267;86.3964;52.1009;82.6291;277.5208;2.298E-5;8.4E-7;0;Iridium
14.34217019;0.000267;86.3965;51.8967;82.2849;277.865;2.09E-5;7.8E-7;0;Iridium
14.34217059;0.0002667;86.3966;51.6926;82.0073;278.1425;1.9526E-5;7.4E-7;0;Iridium
14.34217117;0.0002665;86.3967;51.5176;81.7665;278.3833;1.909E-5;7.3E-7;0;Iridium
14.34217169;0.0002654;86.3968;51.2842;81.585;278.5647;1.7392E-5;6.8E-7;0;Iridium
14.34217308;0.0002636;86.397;50.8467;80.6516;279.4978;1.6831E-5;6.7E-7;0;Iridium
14.34217308;0.0002636;86.397;50.8467;80.6516;279.4978;1.6831E-5;6.7E-7;0;Iridium
14.34217336;0.000263;86.397;50.6718;80.373;279.7763;1.5557E-5;6.3E-7;0;Iridium
14.34217411;0.0002619;86.3971;50.4383;79.9715;280.1776;1.58E-5;6.4E-7;0;Iridium
14.34217444;0.0002618;86.3972;50.2341;79.8236;280.3255;1.5123E-5;6.2E-7;0;Iridium
14.34217475;0.0002606;86.3974;50.03;79.5479;280.6011;1.5435E-5;6.3E-7;0;Iridium
14.34217515;0.0002615;86.3974;49.8257;79.6344;280.5146;1.5987E-5;6.5E-7;0;Iridium
14.34217559;0.0002591;86.3975;49.3883;78.7769;281.3718;1.4946E-5;6.2E-7;0;Iridium
14.34217595;0.0002581;86.3977;49.1259;78.4375;281.7111;1.5477E-5;6.3E-7;0;Iridium
14.34217639;0.0002579;86.3977;49.0093;78.1219;282.0266;1.7003E-5;6.7E-7;0;Iridium
14.34217689;0.0002574;86.3978;48.7469;77.6039;282.5444;1.765E-5;6.9E-7;0;Iridium
14.34217713;0.000257;86.3979;48.572;77.2615;282.8868;1.6664E-5;6.6E-7;0;Iridium
14.34217809;0.0002556;86.398;48.3096;76.9097;283.2384;2.0759E-5;7.8E-7;0;Iridium
14.34217861;0.0002545;86.3981;48.1346;76.6865;283.4615;2.108E-5;7.9E-7;0;Iridium
14.34217981;0.0002531;86.3982;47.9014;76.4253;283.7225;2.5456E-5;9.1E-7;0;Iridium
14.3421798;0.000253;86.3982;47.8722;76.3986;283.7491;2.5238E-5;9.0E-7;0;Iridium
14.34218026;0.000252;86.3982;47.7265;76.2599;283.8877;2.5043E-5;9.0E-7;0;Iridium
14.34218093;0.0002503;86.3983;47.4641;75.962;284.1854;2.4634E-5;8.9E-7;0;Iridium
14.34218066;0.0002498;86.3984;47.3183;75.8088;284.3385;1.9122E-5;7.3E-7;0;Iridium
14.34218105;0.0002484;86.3985;47.056;75.5267;284.6204;1.7239E-5;6.8E-7;0;Iridium
14.34218093;0.0002486;86.3985;47.0268;75.495;284.6522;1.6759E-5;6.7E-7;0;Iridium
14.34218116;0.0002475;86.3985;46.881;75.3748;284.7722;1.4745E-5;6.1E-7;0;Iridium
14.34218149;0.0002461;86.3986;46.7061;75.149;284.9978;1.4343E-5;6.0E-7;0;Iridium
14.34218207;0.0002447;86.3987;46.4729;74.9005;285.2462;1.4024E-5;5.9E-7;0;Iridium
14.34218319;0.0002433;86.3988;46.2397;74.6673;285.4791;1.6451E-5;6.6E-7;0;Iridium
14.34218316;0.0002433;86.3988;46.2106;74.6175;285.5289;1.5995E-5;6.5E-7;0;Iridium
14.34218354;0.0002422;86.3988;46.0648;74.5268;285.6196;1.5239E-5;6.2E-7;0;Iridium
14.34218444;0.0002406;86.399;45.8025;74.3487;285.7974;1.6681E-5;6.6E-7;0;Iridium
14.34218466;0.00024;86.3991;45.6277;74.062;286.084;1.469E-5;6.1E-7;0;Iridium
14.34218541;0.0002388;86.3992;45.3945;73.9399;286.2059;1.5697E-5;6.4E-7;0;Iridium
14.34218601;0.0002377;86.3993;45.2196;73.7855;286.3602;1.633E-5;6.6E-7;0;Iridium
14.3421864;0.0002361;86.3994;44.9573;73.5609;286.5846;1.5422E-5;6.3E-7;0;Iridium
14.34218684;0.000235;86.3995;44.8116;73.3966;286.7488;1.5776E-5;6.4E-7;0;Iridium
14.34218682;0.0002333;86.3996;44.5493;73.0726;287.0726;1.147E-5;5.2E-7;0;Iridium
14.34218692;0.000232;86.3997;44.3745;72.9641;287.1808;9.9902E-6;4.8E-7;0;Iridium
14.3421874;0.0002301;86.3997;44.1413;72.8052;287.3396;1.1621E-5;5.2E-7;0;Iridium
14.34218727;0.0002302;86.3998;44.1122;72.7304;287.4144;1.1047E-5;5.1E-7;0;Iridium
14.34218748;0.0002291;86.3998;43.9665;72.6614;287.4832;1.0128E-5;4.8E-7;0;Iridium
14.34218822;0.0002274;86.3999;43.7042;72.5972;287.5472;1.3406E-5;5.7E-7;0;Iridium
14.34218888;0.0002265;86.3999;43.5585;72.4873;287.657;1.5629E-5;6.4E-7;0;Iridium
14.34218955;0.0002264;86.4;43.5002;72.5891;287.5553;1.9741E-5;7.5E-7;0;Iridium
14.34219073;0.0002236;86.4001;43.1505;72.3496;287.7944;2.1862E-5;8.1E-7;0;Iridium
14.34219127;0.0002218;86.4001;42.9465;72.1816;287.9622;2.2411E-5;8.3E-7;0;Iridium
14.34219127;0.0002218;86.4001;42.9465;72.1816;287.9622;2.2411E-5;8.3E-7;0;Iridium
14.34219197;0.0002201;86.4002;42.7134;72.1921;287.9515;2.3163E-5;8.5E-7;0;Iridium
14.34219278;0.0002185;86.4003;42.5386;72.0998;288.0436;2.5486E-5;9.1E-7;0;Iridium
14.34219352;0.0002169;86.4003;42.3055;71.9933;288.1499;2.5259E-5;9.1E-7;0;Iridium
14.34220798;0.0002286;86.3991;42.1021;71.4835;288.6609;2.6567E-5;9.4E-7;0;Iridium
14.34220798;0.0002286;86.3991;42.1021;71.4835;288.6609;2.6567E-5;9.4E-7;0;Iridium
14.34217168;0.0002182;86.3995;41.8984;74.328;285.8157;2.6755E-5;9.5E-7;0;Iridium
14.3421608;0.0002103;86.4003;41.6939;74.6166;285.5262;2.7201E-5;9.6E-7;0;Iridium
14.34216078;0.0002124;86.4005;41.4898;72.574;287.5687;1.374E-5;5.8E-7;0;Iridium
14.34216151;0.0002111;86.4006;41.2858;72.2581;287.8845;1.3337E-5;5.7E-7;0;Iridium
14.3421623;0.0002101;86.4007;41.0527;71.941;288.2015;1.2E-5;5.3E-7;0;Iridium
14.3421647;0.0002084;86.4008;40.8779;72.2634;287.8789;3.2185E-5;1.1E-6;0;Iridium
14.34216492;0.0002072;86.4008;40.6449;72.1719;287.9702;2.4737E-5;8.9E-7;0;Iridium
14.34216512;0.000205;86.4009;40.4409;72.1279;288.014;2.076E-5;7.8E-7;0;Iridium
14.34216568;0.0002039;86.4009;40.2953;72.2066;287.9352;2.1234E-5;7.9E-7;0;Iridium
14.3421657;0.0002035;86.4009;40.237;72.2124;287.9294;1.9153E-5;7.3E-7;0;Iridium
14.34216625;0.000201;86.401;39.9457;72.5594;287.5821;1.7197E-5;6.8E-7;0;Iridium
14.3421666;0.0001996;86.401;39.8;72.6693;287.4721;1.5884E-5;6.4E-7;0;Iridium
14.34216706;0.0001979;86.4011;39.6252;72.7851;287.3561;1.569E-5;6.4E-7;0;Iridium
14.34216743;0.0001969;86.4011;39.3923;72.7889;287.3522;1.3777E-5;5.8E-7;0;Iridium
14.34216801;0.0001935;86.4012;38.9844;72.9845;287.1563;1.2106E-5;5.4E-7;0;Iridium
14.34216929;0.0001905;86.4013;38.5766;73.4146;286.7259;1.4489E-5;6.0E-7;0;Iridium
14.34217065;0.0001888;86.4013;38.3435;73.8029;286.3374;1.8727E-5;7.2E-7;0;Iridium
14.34217065;0.0001888;86.4013;38.3435;73.8029;286.3374;1.8727E-5;7.2E-7;0;Iridium
14.3421713;0.0001877;86.4014;38.1396;73.9895;286.1507;2.0177E-5;7.6E-7;0;Iridium
14.34217187;0.0001864;86.4014;37.9357;74.1048;286.0354;2.153E-5;8.0E-7;0;Iridium
14.34217268;0.0001855;86.4014;37.7318;74.2166;285.9234;2.3391E-5;8.5E-7;0;Iridium
14.34217292;0.0001845;86.4014;37.5278;74.3197;285.8202;2.3099E-5;8.4E-7;0;Iridium
14.34217351;0.0001837;86.4015;37.324;74.8588;285.2811;2.3901E-5;8.7E-7;0;Iridium
14.34217413;0.000182;86.4015;37.1201;75.0518;285.0879;2.4615E-5;8.9E-7;0;Iridium
14.34217462;0.0001811;86.4015;36.887;75.6293;284.5103;2.392E-5;8.7E-7;0;Iridium
14.34217516;0.00018;86.4015;36.7122;75.6434;284.4962;2.392E-5;8.7E-7;0;Iridium
14.34217516;0.00018;86.4015;36.7122;75.6434;284.4962;2.392E-5;8.7E-7;0;Iridium
14.34217571;0.000179;86.4015;36.4792;75.9312;284.2083;2.3056E-5;8.4E-7;0;Iridium
14.34217646;0.0001781;86.4016;36.3335;76.083;284.0564;2.4999E-5;9.0E-7;0;Iridium
14.3421779;0.0001755;86.4016;35.9257;76.8348;283.3044;2.4616E-5;8.9E-7;0;Iridium
14.34217771;0.0001751;86.4015;35.8675;76.8482;283.2909;2.2426E-5;8.3E-7;0;Iridium
14.34217835;0.0001744;86.4015;35.6636;77.4516;282.6874;2.1777E-5;8.1E-7;0;Iridium
14.34217933;0.0001733;86.4015;35.4306;78.2812;281.8578;2.2268E-5;8.2E-7;0;Iridium
14.34217978;0.0001728;86.4015;35.2849;78.5986;281.5403;2.1793E-5;8.1E-7;0;Iridium
14.34217974;0.0001735;86.4015;35.2266;79.0484;281.0907;2.0805E-5;7.8E-7;0;Iridium
14.34218083;0.0001729;86.4016;35.0228;79.3115;280.8275;2.2444E-5;8.3E-7;0;Iridium
14.34218152;0.0001733;86.4016;34.7897;79.6205;280.5186;2.1871E-5;8.1E-7;0;Iridium
14.34218186;0.0001727;86.4016;34.615;79.5922;280.5468;1.9911E-5;7.6E-7;0;Iridium
14.34218202;0.0001721;86.4016;34.382;79.9897;280.1492;1.6892E-5;6.7E-7;0;Iridium
14.34218281;0.0001704;86.4017;33.9742;80.6383;279.5005;1.536E-5;6.3E-7;0;Iridium
14.34218342;0.0001699;86.4017;33.7994;80.992;279.1468;1.5836E-5;6.4E-7;0;Iridium
14.3421841;0.0001696;86.4017;33.5664;81.606;278.5328;1.6372E-5;6.6E-7;0;Iridium
14.34218451;0.000169;86.4017;33.3916;81.709;278.4298;1.6398E-5;6.6E-7;0;Iridium
14.34218479;0.0001685;86.4016;33.1586;82.3321;277.8066;1.505E-5;6.2E-7;0;Iridium
14.34218625;0.0001676;86.4017;32.9547;82.6776;277.461;2.0688E-5;7.8E-7;0;Iridium
14.34218625;0.0001676;86.4017;32.9547;82.6776;277.461;2.0688E-5;7.8E-7;0;Iridium
14.3421866;0.0001675;86.4017;32.7508;83.2413;276.8973;2.0033E-5;7.6E-7;0;Iridium
14.34218733;0.0001667;86.4016;32.5469;83.6258;276.5128;2.1924E-5;8.1E-7;0;Iridium
14.34218814;0.0001675;86.4016;32.3138;84.6642;275.4745;2.3814E-5;8.6E-7;0;Iridium
14.34218866;0.0001669;86.4015;32.139;84.9477;275.191;2.457E-5;8.9E-7;0;Iridium
14.34218866;0.0001669;86.4015;32.139;84.9477;275.191;2.457E-5;8.9E-7;0;Iridium
14.34218931;0.0001673;86.4015;31.906;85.6153;274.5234;2.4656E-5;8.9E-7;0;Iridium
14.34219029;0.0001673;86.4015;31.5564;86.1096;274.0291;2.5732E-5;9.2E-7;0;Iridium
14.34219036;0.0001677;86.4015;31.4982;86.4765;273.6623;2.4894E-5;8.9E-7;0;Iridium
14.34219075;0.000168;86.4015;31.2943;86.9872;273.1516;2.3943E-5;8.7E-7;0;Iridium
14.34219159;0.0001686;86.4015;31.0613;88.0134;272.1254;2.474E-5;8.9E-7;0;Iridium
14.34219243;0.0001686;86.4014;30.8865;88.2669;271.872;2.5833E-5;9.2E-7;0;Iridium
14.3421936;0.0001693;86.4013;30.6535;88.9096;271.2293;2.7392E-5;9.6E-7;0;Iridium
14.34219505;0.0001696;86.4012;30.304;89.5789;270.5601;2.7704E-5;9.7E-7;0;Iridium
14.3421966;0.00017;86.4012;29.8961;90.3997;269.7393;2.6949E-5;9.5E-7;0;Iridium
14.34219669;0.0001703;86.4012;29.867;90.4875;269.6516;2.6535E-5;9.4E-7;0;Iridium
14.34219713;0.0001707;86.4012;29.6048;91.1794;268.9597;2.3417E-5;8.5E-7;0;Iridium
14.3421974;0.0001717;86.4012;29.4009;91.9022;268.2371;2.0644E-5;7.8E-7;0;Iridium
